[{"CCSDS_OMM_VERS":"3.0","COMMENT":"GENERATED VIA SPACE-TRACK.ORG API","CREATION_DATE":"2026-06-13T23:16:58","ORIGINATOR":"18 SPCS","OBJECT_NAME":"GALILEO 16 (26C)","OBJECT_ID":"2016-069B","CENTER_NAME":"EARTH","REF_FRAME":"TEME","TIME_SYSTEM":"UTC","MEAN_ELEMENT_THEORY":"SGP4","EPOCH":"2026-06-13T01:54:12.453984","MEAN_MOTION":"1.70473740","ECCENTRICITY":"0.00046530","INCLINATION":"55.4941","RA_OF_ASC_NODE":"101.1951","ARG_OF_PERICENTER":"357.9149","MEAN_ANOMALY":"2.0398","EPHEMERIS_TYPE":"0","CLASSIFICATION_TYPE":"U","NORAD_CAT_ID":"41860","ELEMENT_SET_NO":"999","REV_AT_EPOCH":"5958","BSTAR":"0.00000000000000","MEAN_MOTION_DOT":"-0.00000004","MEAN_MOTION_DDOT":"0.0000000000000","SEMIMAJOR_AXIS":"29600.350","PERIOD":"844.705","APOAPSIS":"23235.988","PERIAPSIS":"23208.442","OBJECT_TYPE":"PAYLOAD","RCS_SIZE":"LARGE","COUNTRY_CODE":"ESA","LAUNCH_DATE":"2016-11-17","SITE":"FRGUI","DECAY_DATE":null,"FILE":"5244976","GP_ID":"329133663","TLE_LINE0":"0 GALILEO 16 (26C)","TLE_LINE1":"1 41860U 16069B   26164.07931081 -.00000004  00000-0  00000+0 0  9993","TLE_LINE2":"2 41860  55.4941 101.1951 0004653 357.9149   2.0398  1.70473740 59585"},{"CCSDS_OMM_VERS":"3.0","COMMENT":"GENERATED VIA SPACE-TRACK.ORG API","CREATION_DATE":"2026-06-14T05:02:57","ORIGINATOR":"18 SPCS","OBJECT_NAME":"GALILEO 16 (26C)","OBJECT_ID":"2016-069B","CENTER_NAME":"EARTH","REF_FRAME":"TEME","TIME_SYSTEM":"UTC","MEAN_ELEMENT_THEORY":"SGP4","EPOCH":"2026-06-13T01:54:12.454848","MEAN_MOTION":"1.70473740","ECCENTRICITY":"0.00046533","INCLINATION":"55.4941","RA_OF_ASC_NODE":"101.1951","ARG_OF_PERICENTER":"357.9149","MEAN_ANOMALY":"2.0398","EPHEMERIS_TYPE":"0","CLASSIFICATION_TYPE":"U","NORAD_CAT_ID":"41860","ELEMENT_SET_NO":"999","REV_AT_EPOCH":"5958","BSTAR":"0.00000000000000","MEAN_MOTION_DOT":"-0.00000004","MEAN_MOTION_DDOT":"0.0000000000000","SEMIMAJOR_AXIS":"29600.350","PERIOD":"844.705","APOAPSIS":"23235.989","PERIAPSIS":"23208.441","OBJECT_TYPE":"PAYLOAD","RCS_SIZE":"LARGE","COUNTRY_CODE":"ESA","LAUNCH_DATE":"2016-11-17","SITE":"FRGUI","DECAY_DATE":null,"FILE":"5245182","GP_ID":"329203954","TLE_LINE0":"0 GALILEO 16 (26C)","TLE_LINE1":"1 41860U 16069B   26164.07931082 -.00000004  00000-0  00000-0 0  9995","TLE_LINE2":"2 41860  55.4941 101.1951 0004653 357.9149   2.0398  1.70473740 59585"},{"CCSDS_OMM_VERS":"3.0","COMMENT":"GENERATED VIA SPACE-TRACK.ORG API","CREATION_DATE":"2026-06-15T02:25:05","ORIGINATOR":"18 SPCS","OBJECT_NAME":"GALILEO 16 (26C)","OBJECT_ID":"2016-069B","CENTER_NAME":"EARTH","REF_FRAME":"TEME","TIME_SYSTEM":"UTC","MEAN_ELEMENT_THEORY":"SGP4","EPOCH":"2026-06-14T06:03:34.358400","MEAN_MOTION":"1.70473713","ECCENTRICITY":"0.00046425","INCLINATION":"55.4947","RA_OF_ASC_NODE":"101.1626","ARG_OF_PERICENTER":"358.3825","MEAN_ANOMALY":"1.5720","EPHEMERIS_TYPE":"0","CLASSIFICATION_TYPE":"U","NORAD_CAT_ID":"41860","ELEMENT_SET_NO":"999","REV_AT_EPOCH":"5960","BSTAR":"0.00000000000000","MEAN_MOTION_DOT":"-0.00000011","MEAN_MOTION_DDOT":"0.0000000000000","SEMIMAJOR_AXIS":"29600.353","PERIOD":"844.705","APOAPSIS":"23235.960","PERIAPSIS":"23208.476","OBJECT_TYPE":"PAYLOAD","RCS_SIZE":"LARGE","COUNTRY_CODE":"ESA","LAUNCH_DATE":"2016-11-17","SITE":"FRGUI","DECAY_DATE":null,"FILE":"5247531","GP_ID":"329530930","TLE_LINE0":"0 GALILEO 16 (26C)","TLE_LINE1":"1 41860U 16069B   26165.25248100 -.00000011  00000-0  00000-0 0  9996","TLE_LINE2":"2 41860  55.4947 101.1626 0004642 358.3825   1.5720  1.70473713 59600"},{"CCSDS_OMM_VERS":"3.0","COMMENT":"GENERATED VIA SPACE-TRACK.ORG API","CREATION_DATE":"2026-06-14T23:26:41","ORIGINATOR":"18 SPCS","OBJECT_NAME":"GALILEO 16 (26C)","OBJECT_ID":"2016-069B","CENTER_NAME":"EARTH","REF_FRAME":"TEME","TIME_SYSTEM":"UTC","MEAN_ELEMENT_THEORY":"SGP4","EPOCH":"2026-06-14T06:03:34.358400","MEAN_MOTION":"1.70473713","ECCENTRICITY":"0.00046420","INCLINATION":"55.4947","RA_OF_ASC_NODE":"101.1626","ARG_OF_PERICENTER":"358.3825","MEAN_ANOMALY":"1.5720","EPHEMERIS_TYPE":"0","CLASSIFICATION_TYPE":"U","NORAD_CAT_ID":"41860","ELEMENT_SET_NO":"999","REV_AT_EPOCH":"5960","BSTAR":"0.00000000000000","MEAN_MOTION_DOT":"-0.00000011","MEAN_MOTION_DDOT":"0.0000000000000","SEMIMAJOR_AXIS":"29600.353","PERIOD":"844.705","APOAPSIS":"23235.959","PERIAPSIS":"23208.478","OBJECT_TYPE":"PAYLOAD","RCS_SIZE":"LARGE","COUNTRY_CODE":"ESA","LAUNCH_DATE":"2016-11-17","SITE":"FRGUI","DECAY_DATE":null,"FILE":"5247212","GP_ID":"329462171","TLE_LINE0":"0 GALILEO 16 (26C)","TLE_LINE1":"1 41860U 16069B   26165.25248100 -.00000011  00000-0  00000+0 0  9995","TLE_LINE2":"2 41860  55.4947 101.1626 0004642 358.3825   1.5720  1.70473713 59600"},{"CCSDS_OMM_VERS":"3.0","COMMENT":"GENERATED VIA SPACE-TRACK.ORG API","CREATION_DATE":"2026-06-17T17:43:15","ORIGINATOR":"18 SPCS","OBJECT_NAME":"GALILEO 16 (26C)","OBJECT_ID":"2016-069B","CENTER_NAME":"EARTH","REF_FRAME":"TEME","TIME_SYSTEM":"UTC","MEAN_ELEMENT_THEORY":"SGP4","EPOCH":"2026-06-17T04:27:01.265184","MEAN_MOTION":"1.70473702","ECCENTRICITY":"0.00046204","INCLINATION":"55.4965","RA_OF_ASC_NODE":"101.0814","ARG_OF_PERICENTER":"0.5608","MEAN_ANOMALY":"359.4079","EPHEMERIS_TYPE":"0","CLASSIFICATION_TYPE":"U","NORAD_CAT_ID":"41860","ELEMENT_SET_NO":"999","REV_AT_EPOCH":"5965","BSTAR":"0.00000000000000","MEAN_MOTION_DOT":"-0.00000013","MEAN_MOTION_DDOT":"0.0000000000000","SEMIMAJOR_AXIS":"29600.355","PERIOD":"844.705","APOAPSIS":"23235.896","PERIAPSIS":"23208.543","OBJECT_TYPE":"PAYLOAD","RCS_SIZE":"LARGE","COUNTRY_CODE":"ESA","LAUNCH_DATE":"2016-11-17","SITE":"FRGUI","DECAY_DATE":null,"FILE":"5252865","GP_ID":"330229080","TLE_LINE0":"0 GALILEO 16 (26C)","TLE_LINE1":"1 41860U 16069B   26168.18543131 -.00000013  00000-0  00000-0 0  9995","TLE_LINE2":"2 41860  55.4965 101.0814 0004620   0.5608 359.4079  1.70473702 59654"},{"CCSDS_OMM_VERS":"3.0","COMMENT":"GENERATED VIA SPACE-TRACK.ORG API","CREATION_DATE":"2026-06-17T15:17:06","ORIGINATOR":"18 SPCS","OBJECT_NAME":"GALILEO 16 (26C)","OBJECT_ID":"2016-069B","CENTER_NAME":"EARTH","REF_FRAME":"TEME","TIME_SYSTEM":"UTC","MEAN_ELEMENT_THEORY":"SGP4","EPOCH":"2026-06-17T04:27:01.265184","MEAN_MOTION":"1.70473702","ECCENTRICITY":"0.00046200","INCLINATION":"55.4965","RA_OF_ASC_NODE":"101.0814","ARG_OF_PERICENTER":"0.5608","MEAN_ANOMALY":"359.4079","EPHEMERIS_TYPE":"0","CLASSIFICATION_TYPE":"U","NORAD_CAT_ID":"41860","ELEMENT_SET_NO":"999","REV_AT_EPOCH":"5965","BSTAR":"0.00000000000000","MEAN_MOTION_DOT":"-0.00000013","MEAN_MOTION_DDOT":"0.0000000000000","SEMIMAJOR_AXIS":"29600.355","PERIOD":"844.705","APOAPSIS":"23235.895","PERIAPSIS":"23208.544","OBJECT_TYPE":"PAYLOAD","RCS_SIZE":"LARGE","COUNTRY_CODE":"ESA","LAUNCH_DATE":"2016-11-17","SITE":"FRGUI","DECAY_DATE":null,"FILE":"5252766","GP_ID":"330176497","TLE_LINE0":"0 GALILEO 16 (26C)","TLE_LINE1":"1 41860U 16069B   26168.18543131 -.00000013  00000-0  00000+0 0  9994","TLE_LINE2":"2 41860  55.4965 101.0814 0004620   0.5608 359.4079  1.70473702 59654"},{"CCSDS_OMM_VERS":"3.0","COMMENT":"GENERATED VIA SPACE-TRACK.ORG API","CREATION_DATE":"2026-06-19T11:14:33","ORIGINATOR":"18 SPCS","OBJECT_NAME":"GALILEO 16 (26C)","OBJECT_ID":"2016-069B","CENTER_NAME":"EARTH","REF_FRAME":"TEME","TIME_SYSTEM":"UTC","MEAN_ELEMENT_THEORY":"SGP4","EPOCH":"2026-06-18T22:41:05.677440","MEAN_MOTION":"1.70473680","ECCENTRICITY":"0.00046071","INCLINATION":"55.4975","RA_OF_ASC_NODE":"101.0327","ARG_OF_PERICENTER":"1.4092","MEAN_ANOMALY":"358.5693","EPHEMERIS_TYPE":"0","CLASSIFICATION_TYPE":"U","NORAD_CAT_ID":"41860","ELEMENT_SET_NO":"999","REV_AT_EPOCH":"5968","BSTAR":"0.00000000000000","MEAN_MOTION_DOT":"-0.00000012","MEAN_MOTION_DDOT":"0.0000000000000","SEMIMAJOR_AXIS":"29600.357","PERIOD":"844.705","APOAPSIS":"23235.859","PERIAPSIS":"23208.585","OBJECT_TYPE":"PAYLOAD","RCS_SIZE":"LARGE","COUNTRY_CODE":"ESA","LAUNCH_DATE":"2016-11-17","SITE":"FRGUI","DECAY_DATE":null,"FILE":"5255912","GP_ID":"330687846","TLE_LINE0":"0 GALILEO 16 (26C)","TLE_LINE1":"1 41860U 16069B   26169.94520460 -.00000012  00000-0  00000-0 0  9999","TLE_LINE2":"2 41860  55.4975 101.0327 0004607   1.4092 358.5693  1.70473680 59686"},{"CCSDS_OMM_VERS":"3.0","COMMENT":"GENERATED VIA SPACE-TRACK.ORG API","CREATION_DATE":"2026-06-23T03:40:42","ORIGINATOR":"18 SPCS","OBJECT_NAME":"GALILEO 16 (26C)","OBJECT_ID":"2016-069B","CENTER_NAME":"EARTH","REF_FRAME":"TEME","TIME_SYSTEM":"UTC","MEAN_ELEMENT_THEORY":"SGP4","EPOCH":"2026-06-22T11:09:12.531168","MEAN_MOTION":"1.70473711","ECCENTRICITY":"0.00045534","INCLINATION":"55.4994","RA_OF_ASC_NODE":"100.9352","ARG_OF_PERICENTER":"5.8604","MEAN_ANOMALY":"354.1239","EPHEMERIS_TYPE":"0","CLASSIFICATION_TYPE":"U","NORAD_CAT_ID":"41860","ELEMENT_SET_NO":"999","REV_AT_EPOCH":"5974","BSTAR":"0.00000000000000","MEAN_MOTION_DOT":"-0.00000027","MEAN_MOTION_DDOT":"0.0000000000000","SEMIMAJOR_AXIS":"29600.354","PERIOD":"844.705","APOAPSIS":"23235.697","PERIAPSIS":"23208.740","OBJECT_TYPE":"PAYLOAD","RCS_SIZE":"LARGE","COUNTRY_CODE":"ESA","LAUNCH_DATE":"2016-11-17","SITE":"FRGUI","DECAY_DATE":null,"FILE":"5257616","GP_ID":"330960995","TLE_LINE0":"0 GALILEO 16 (26C)","TLE_LINE1":"1 41860U 16069B   26173.46472837 -.00000027  00000-0  00000-0 0  9991","TLE_LINE2":"2 41860  55.4994 100.9352 0004553   5.8604 354.1239  1.70473711 59740"}]